[{"OBJECT_NAME":"IRIDIUM 128","OBJECT_ID":"2017-039J","EPOCH":"2026-03-09T22:17:06.660384","MEAN_MOTION":14.3421733,"ECCENTRICITY":0.00019867,"INCLINATION":86.3911,"RA_OF_ASC_NODE":66.6445,"ARG_OF_PERICENTER":95.0823,"MEAN_ANOMALY":265.0599,"EPHEMERIS_TYPE":0,"CLASSIFICATION_TYPE":"U","NORAD_CAT_ID":42811,"ELEMENT_SET_NO":999,"REV_AT_EPOCH":45575,"BSTAR":-1.154861e-5,"MEAN_MOTION_DOT":-1.3e-7,"MEAN_MOTION_DDOT":0},{"OBJECT_NAME":"THOR BURNER 2 R\/B","OBJECT_ID":"1972-018B","EPOCH":"2026-03-09T22:37:34.399200","MEAN_MOTION":14.24470586,"ECCENTRICITY":0.00466537,"INCLINATION":99.0994,"RA_OF_ASC_NODE":239.6597,"ARG_OF_PERICENTER":344.1672,"MEAN_ANOMALY":15.8044,"EPHEMERIS_TYPE":0,"CLASSIFICATION_TYPE":"U","NORAD_CAT_ID":5904,"ELEMENT_SET_NO":999,"REV_AT_EPOCH":79873,"BSTAR":8.5100903e-5,"MEAN_MOTION_DOT":1.52e-6,"MEAN_MOTION_DDOT":0}]
